DECODE 2-LINE ELSETS WITH THE FOLLOWING KEY:
1 AAAAAU 00  0  0 BBBBB.BBBBBBBB  .CCCCCCCC  00000-0  00000-0 0  DDDZ
2 AAAAA EEE.EEEE FFF.FFFF GGGGGGG HHH.HHHH III.IIII JJ.JJJJJJJJKKKKKZ
KEY: A-CATALOGNUM B-EPOCHTIME C-DECAY D-ELSETNUM E-INCLINATION F-RAAN
G-ECCENTRICITY H-ARGPERIGEE I-MNANOM J-MNMOTION K-ORBITNUM Z-CHECKSUM

TO ALL RADIO AMATEURS BT

AO-07
1 07530U 74089B   08100.66006116 -.00000027  00000-0  10000-3 0 01499
2 07530 101.4733 134.4326 0011996 037.2395 322.9506 12.53573729528392
AO-10
1 14129U 83058B   08097.37080946 -.00000217  00000-0  10000-3 0 04925
2 14129 025.9224 221.7469 6009885 113.1132 318.9819 02.05872751186621
UO-11
1 14781U 84021B   08100.68162962  .00000173  00000-0  30314-4 0 06404
2 14781 098.1612 133.6688 0008115 297.1732 062.8601 14.79632973293728
RS-15
1 23439U 94085A   08100.89849777 -.00000039  00000-0  10000-3 0 01231
2 23439 064.8138 245.4742 0149656 135.8486 225.4496 11.27552104547261
FO-29
1 24278U 96046B   08101.75152378  .00000070  00000-0  10663-3 0  7473
2 24278 098.5873 026.8583 0351324 030.2103 331.8792 13.52936991575271
SO-33
1 25509U 98061B   08101.73836972  .00000318  00000-0  50570-4 0  1726
2 25509 031.4313 337.7280 0354811 157.5901 204.0686 14.28211241493961
AO-40
1 26609U 00072B   08101.13444296 -.00000251  00000-0  10000-3 0   382
2 26609 007.5481 088.6252 7916660 069.9301 353.9337 01.25582268 34182
VO-52
1 28650U 05017B   08100.64828243  .00000367  00000-0  53230-4 0  9005
2 28650 097.7939 169.1239 0027189 006.9381 353.2191 14.81447628158454
PO-63
1 29712U 07001D   08101.62187680  .00000798  00000-0  11196-3 0  3457
2 29712 097.8807 161.0632 0013113 238.5070 121.4863 14.80098887 67477
AO-16
1 20439U 90005D   08100.51575602  .00000007  00000-0  17679-4 0  2930
2 20439 098.2253 084.1056 0011563 025.6306 334.5446 14.31789696951098
LO-19
1 20442U 90005G   08100.64433503  .00000012  00000-0  19717-4 0 02202
2 20442 098.1985 092.9663 0012452 023.4026 336.7735 14.32028521951265
AO-27
1 22825U 93061C   08100.66339666 -.00000056  00000-0 -57764-5 0 09427
2 22825 098.3789 063.2791 0009358 101.5131 258.7096 14.29234993757989
IO-26
1 22826U 93061D   08100.79933866  .00000006  00000-0  18492-4 0 06451
2 22826 098.3703 064.3502 0009863 097.7726 262.4579 14.29483661758094
PO-28
1 22829U 93061G   08100.46955244 -.00000011  00000-0  11810-4 0 09189
2 22829 098.3588 065.1501 0010767 073.4324 286.8037 14.30185320758302
GO-32
1 25397U 98043D   08101.75632666 -.00000162  00000-0 -53524-4 0  5711
2 25397 098.3717 140.2276 0002165 087.6039 272.5388 14.23140850506624
MO-46
1 26548U 00057D   08100.66568842  .00000049  00000-0  23972-4 0 00699
2 26548 064.5597 342.3015 0022227 333.8227 026.1765 14.83247428407656
NO-44
1 26931U 01043C   08100.51078768  .00000085  00000-0  65471-4 0 08517
2 26931 067.0495 101.5739 0005786 279.0872 080.9578 14.29518705340591
