Satellite: AO-07
Catalog number: 07530
Epoch time:      08100.66006116
Element set:    0149
Inclination:      101.4733 deg
RA of node:       134.4326 deg
Eccentricity:    0.0011996
Arg of perigee:   037.2395 deg
Mean anomaly:     322.9506 deg
Mean motion:   12.53573729 rev/day
Decay rate:       -2.7e-07 rev/day^2
Epoch rev:           52839
Checksum:              287

Satellite: AO-10
Catalog number: 14129
Epoch time:      08097.37080946
Element set:    0492
Inclination:      025.9224 deg
RA of node:       221.7469 deg
Eccentricity:    0.6009885
Arg of perigee:   113.1132 deg
Mean anomaly:     318.9819 deg
Mean motion:   02.05872751 rev/day
Decay rate:      -2.17e-06 rev/day^2
Epoch rev:           18662
Checksum:              317

Satellite: UO-11
Catalog number: 14781
Epoch time:      08100.68162962
Element set:    0640
Inclination:      098.1612 deg
RA of node:       133.6688 deg
Eccentricity:    0.0008115
Arg of perigee:   297.1732 deg
Mean anomaly:     062.8601 deg
Mean motion:   14.79632973 rev/day
Decay rate:       1.73e-06 rev/day^2
Epoch rev:           29372
Checksum:              308

Satellite: RS-15
Catalog number: 23439
Epoch time:      08100.89849777
Element set:    0123
Inclination:      064.8138 deg
RA of node:       245.4742 deg
Eccentricity:    0.0149656
Arg of perigee:   135.8486 deg
Mean anomaly:     225.4496 deg
Mean motion:   11.27552104 rev/day
Decay rate:       -3.9e-07 rev/day^2
Epoch rev:           54726
Checksum:              333

Satellite: FO-29
Catalog number: 24278
Epoch time:      08101.75152378
Element set:     747
Inclination:      098.5873 deg
RA of node:       026.8583 deg
Eccentricity:    0.0351324
Arg of perigee:   030.2103 deg
Mean anomaly:     331.8792 deg
Mean motion:   13.52936991 rev/day
Decay rate:        7.0e-07 rev/day^2
Epoch rev:           57527
Checksum:              324

Satellite: SO-33
Catalog number: 25509
Epoch time:      08101.73836972
Element set:     172
Inclination:      031.4313 deg
RA of node:       337.7280 deg
Eccentricity:    0.0354811
Arg of perigee:   157.5901 deg
Mean anomaly:     204.0686 deg
Mean motion:   14.28211241 rev/day
Decay rate:       3.18e-06 rev/day^2
Epoch rev:           49396
Checksum:              292

Satellite: AO-40
Catalog number: 26609
Epoch time:      08101.13444296
Element set:      38
Inclination:      007.5481 deg
RA of node:       088.6252 deg
Eccentricity:    0.7916660
Arg of perigee:   069.9301 deg
Mean anomaly:     353.9337 deg
Mean motion:   01.25582268 rev/day
Decay rate:      -2.51e-06 rev/day^2
Epoch rev:            3418
Checksum:              307

Satellite: VO-52
Catalog number: 28650
Epoch time:      08100.64828243
Element set:     900
Inclination:      097.7939 deg
RA of node:       169.1239 deg
Eccentricity:    0.0027189
Arg of perigee:   006.9381 deg
Mean anomaly:     353.2191 deg
Mean motion:   14.81447628 rev/day
Decay rate:       3.67e-06 rev/day^2
Epoch rev:           15845
Checksum:              330

Satellite: PO-63
Catalog number: 29712
Epoch time:      08101.62187680
Element set:     345
Inclination:      097.8807 deg
RA of node:       161.0632 deg
Eccentricity:    0.0013113
Arg of perigee:   238.5070 deg
Mean anomaly:     121.4863 deg
Mean motion:   14.80098887 rev/day
Decay rate:       7.98e-06 rev/day^2
Epoch rev:            6747
Checksum:              318

/EX
SB KEPS @ AMSAT  $ORB08101.D
Orbital Elements  08101.MICROS

HR AMSAT ORBITAL ELEMENTS FOR THE MICROSATS
FROM WA5QGD FORT WORTH,TX April 10, 2008
Send Subscribe/unsubscribe to KEPS at 
http://www.amsat.org/mailman/listinfo/keps
BID: ORB08101.D
TO ALL RADIO AMATEURS BT

Satellite: AO-16
Catalog number: 20439
Epoch time:      08100.51575602
Element set:     293
Inclination:      098.2253 deg
RA of node:       084.1056 deg
Eccentricity:    0.0011563
Arg of perigee:   025.6306 deg
Mean anomaly:     334.5446 deg
Mean motion:   14.31789696 rev/day
Decay rate:        7.0e-08 rev/day^2
Epoch rev:           95109
Checksum:              296

Satellite: LO-19
Catalog number: 20442
Epoch time:      08100.64433503
Element set:    0220
Inclination:      098.1985 deg
RA of node:       092.9663 deg
Eccentricity:    0.0012452
Arg of perigee:   023.4026 deg
Mean anomaly:     336.7735 deg
Mean motion:   14.32028521 rev/day
Decay rate:        1.2e-07 rev/day^2
Epoch rev:           95126
Checksum:              268

Satellite: AO-27
Catalog number: 22825
Epoch time:      08100.66339666
Element set:    0942
Inclination:      098.3789 deg
RA of node:       063.2791 deg
Eccentricity:    0.0009358
Arg of perigee:   101.5131 deg
Mean anomaly:     258.7096 deg
Mean motion:   14.29234993 rev/day
Decay rate:       -5.6e-07 rev/day^2
Epoch rev:           75798
Checksum:              348

Satellite: IO-26
Catalog number: 22826
Epoch time:      08100.79933866
Element set:    0645
Inclination:      098.3703 deg
RA of node:       064.3502 deg
Eccentricity:    0.0009863
Arg of perigee:   097.7726 deg
Mean anomaly:     262.4579 deg
Mean motion:   14.29483661 rev/day
Decay rate:        6.0e-08 rev/day^2
Epoch rev:           75809
Checksum:              343

Satellite: PO-28
Catalog number: 22829
Epoch time:      08100.46955244
Element set:    0918
Inclination:      098.3588 deg
RA of node:       065.1501 deg
Eccentricity:    0.0010767
Arg of perigee:   073.4324 deg
Mean anomaly:     286.8037 deg
Mean motion:   14.30185320 rev/day
Decay rate:       -1.1e-07 rev/day^2
Epoch rev:           75830
Checksum:              300

Satellite: GO-32
Catalog number: 25397
Epoch time:      08101.75632666
Element set:     571
Inclination:      098.3717 deg
RA of node:       140.2276 deg
Eccentricity:    0.0002165
Arg of perigee:   087.6039 deg
Mean anomaly:     272.5388 deg
Mean motion:   14.23140850 rev/day
Decay rate:      -1.62e-06 rev/day^2
Epoch rev:           50662
Checksum:              301

Satellite: MO-46
Catalog number: 26548
Epoch time:      08100.66568842
Element set:    0069
Inclination:      064.5597 deg
RA of node:       342.3015 deg
Eccentricity:    0.0022227
Arg of perigee:   333.8227 deg
Mean anomaly:     026.1765 deg
Mean motion:   14.83247428 rev/day
Decay rate:        4.9e-07 rev/day^2
Epoch rev:           40765
Checksum:              317

Satellite: NO-44
Catalog number: 26931
Epoch time:      08100.51078768
Element set:    0851
Inclination:      067.0495 deg
RA of node:       101.5739 deg
Eccentricity:    0.0005786
Arg of perigee:   279.0872 deg
Mean anomaly:     080.9578 deg
Mean motion:   14.29518705 rev/day
Decay rate:        8.5e-07 rev/day^2
Epoch rev:           34059
Checksum:              336

